LANDSAT 9               
1 49260U 21088A   24025.17136513  .00000842  00000+0  19688-3 0  9998
2 49260  98.2054  97.1186 0000862  84.0520 276.0777 14.57095995123712
